STARLINK-33893          
1 64253U 25119W   26198.59036082  .00005085  00000+0  19419-3 0  9991
2 64253  43.0015 293.6371 0001983 282.8480  77.2150 15.27579470 64031
STARLINK-34183          
1 64254U 25119X   26198.53525128  .00006323  00000+0  23909-3 0  9995
2 64254  42.9993 294.0825 0001470 246.7601 113.3095 15.27581718 64026
STARLINK-34211          
1 64255U 25119Y   26198.34294782  .00013347  00000+0  49353-3 0  9999
2 64255  43.0011 295.2232 0001582 268.8778  91.1892 15.27589756 63992
STARLINK-34329          
1 64256U 25120A   26198.80876615  .00006215  00000+0  19497-3 0  9996
2 64256  53.1570 228.3559 0001532  80.0909 280.0266 15.34392107 63892
STARLINK-34352          
1 64257U 25120B   26198.80503181  .00009115  00000+0  28058-3 0  9997
2 64257  53.1580 231.8771 0001153  72.1912 287.9217 15.34399598 63796
STARLINK-34308          
1 64258U 25120C   26198.29399902  .00009381  00000+0  28841-3 0  9990
2 64258  53.1564 230.8292 0001089  78.3514 281.7610 15.34403542 63761
STARLINK-34306          
1 64259U 25120D   26198.08385650  .00009372  00000+0  28805-3 0  9993
2 64259  53.1577 231.6506 0001166  94.9556 265.1580 15.34410938 63735
STARLINK-34281          
1 64260U 25120E   26198.49150128  .00008781  00000+0  27072-3 0  9998
2 64260  53.1561 229.9255 0001153  86.4530 273.6605 15.34397516 63799
STARLINK-34297          
1 64261U 25120F   26198.49360367  .00007232  00000+0  22497-3 0  9993
2 64261  53.1566 229.9400 0000990 113.5306 246.5801 15.34398834 63733
STARLINK-34325          
1 64262U 25120G   26198.48145245  .00006545  00000+0  20468-3 0  9991
2 64262  53.1594 233.4078 0000797  96.8878 263.2215 15.34398953 63791
STARLINK-34276          
1 64263U 25120H   26198.13265212  .00005206  00000+0  17934-3 0  9998
2 64263  53.1574 234.7918 0001448 102.1075 258.0089 15.31710291 63747
STARLINK-34333          
1 64264U 25120J   26198.79824536  .00006745  00000+0  21065-3 0  9990
2 64264  53.1564 228.2877 0001384  70.7225 289.3927 15.34388510 63842
STARLINK-34240          
1 64265U 25120K   26198.08643099  .00008357  00000+0  25816-3 0  9995
2 64265  53.1582 235.2199 0001810  52.7703 307.3464 15.34405581 63736
STARLINK-34315          
1 64266U 25120L   26198.10536565  .00005594  00000+0  17657-3 0  9992
2 64266  53.1587 235.3264 0001193 115.1126 245.0001 15.34402263 63675
STARLINK-34321          
1 64267U 25120M   26198.80455268  .00010284  00000+0  31506-3 0  9991
2 64267  53.1575 228.3214 0000224 130.7164 229.3859 15.34400335 63897
STARLINK-34319          
1 64268U 25120N   26198.56084392  .00004291  00000+0  13808-3 0  9997
2 64268  53.1570 229.6451 0000964  79.6325 280.4786 15.34391482 63845
STARLINK-34298          
1 64269U 25120P   26198.80666178  .00004819  00000+0  15372-3 0  9997
2 64269  53.1556 228.3400 0001566  74.1569 285.9606 15.34391470 63791
STARLINK-34219          
1 64270U 25120Q   26198.12009692  .00011942  00000+0  36399-3 0  9993
2 64270  53.1588 235.4218 0001363  92.7000 267.4159 15.34400728 63734
STARLINK-34342          
1 64271U 25120R   26198.47303712  .00007320  00000+0  22756-3 0  9999
2 64271  53.1577 233.3632 0000795  82.8462 277.2631 15.34398954 63742
STARLINK-34001          
1 64272U 25120S   26198.09484716  .00015382  00000+0  46544-3 0  9990
2 64272  53.1569 235.2673 0001575  96.0454 264.0728 15.34400134 63638
STARLINK-34334          
1 64273U 25120T   26198.08011864  .00010859  00000+0  33205-3 0  9994
2 64273  53.1590 235.1770 0001495  41.8468 318.2649 15.34400771 63736
STARLINK-34272          
1 64274U 25120U   26198.80081219  .00004604  00000+0  14734-3 0  9993
2 64274  53.1578 231.8519 0001413 249.3760 110.7091 15.34395468 63740
STARLINK-34293          
1 64275U 25120V   26198.50460975  .00009659  00000+0  29674-3 0  9995
2 64275  53.1570 233.5563 0000987  77.3552 282.7561 15.34387657 63736
STARLINK-34350          
1 64276U 25120W   26198.81086634  .00009710  00000+0  29833-3 0  9991
2 64276  53.1567 228.3596 0001465  95.4134 264.7035 15.34381680 63893
STARLINK-34264          
1 64277U 25120X   26198.11799272  .00009817  00000+0  30133-3 0  9997
2 64277  53.1578 235.4066 0000995 120.6795 239.4306 15.34395767 63675
STARLINK-34353          
1 64278U 25120Y   26198.48987295  .00011557  00000+0  35275-3 0  9998
2 64278  53.1583 233.4635 0001245  52.0506 308.0609 15.34392306 63797
STARLINK-34377          
1 64279U 25120Z   26198.81298466  .00008893  00000+0  27394-3 0  9993
2 64279  53.1561 228.3730 0000968  82.0281 278.0831 15.34409320 63896
STARLINK-34359          
1 64280U 25120AA  26198.50249413  .00013399  00000+0  40704-3 0  9996
2 64280  53.1586 233.5393 0000975  43.8692 316.2387 15.34395262 63796
STARLINK-34366          
1 64281U 25120AB  26198.49408027  .00009454  00000+0  29063-3 0  9995
2 64281  53.1591 233.4867 0001894  85.3985 274.7234 15.34396659 63740
STARLINK-34381          
1 64282U 25120AC  26198.78952455  .00010496  00000+0  36612-3 0  9993
2 64282  53.1556 232.4839 0000992  79.3057 280.8056 15.30187504 63812
HULIANWANG DIGUI-30     
1 64283U 25121A   26198.91632823  .00000004  00000+0 -25067-4 0  9992
2 64283  86.4998   3.1875 0001937  89.1952 270.9404 13.24409544 54222
HULIANWANG DIGUI-31     
1 64284U 25121B   26198.90881533  .00000004  00000+0 -24846-4 0  9990
2 64284  86.5019   3.2671 0001936  89.4053 270.7303 13.24414550 54226
HULIANWANG DIGUI-32     
1 64285U 25121C   26198.90112511  .00000004  00000+0 -24456-4 0  9991
2 64285  86.4960   3.0230 0001910  93.6469 266.4883 13.24410424 54221
HULIANWANG DIGUI-33     
1 64286U 25121D   26198.89357682  .00000016  00000+0  21288-5 0  9993
2 64286  86.5012   3.2560 0001887  89.4159 270.7192 13.24409968 54223
HULIANWANG DIGUI-34     
1 64287U 25121E   26198.88605822  .00000017  00000+0  53601-5 0  9990
2 64287  86.4990   3.1615 0002051  81.2346 278.9020 13.24410659 54229
SXM-10                  
1 64290U 25122A   26198.62614112 -.00000026  00000+0  00000+0 0  9999
2 64290   0.0184  45.9021 0001791 317.3247  41.4556  1.00272224  3987
STARLINK-34448          
1 64291U 25123A   26198.10630659  .00002109  00000+0  18444-3 0  9996
2 64291  69.9988 228.1638 0003850 268.1955  91.8763 14.98333573 62227
STARLINK-34362          
1 64292U 25123B   26198.11866855  .00001859  00000+0  16359-3 0  9991
2 64292  69.9991 228.2054 0003638 267.7131  92.3612 14.98332389 62223
STARLINK-34428          
1 64293U 25123C   26198.48584034  .00001999  00000+0  17530-3 0  9995
2 64293  69.9988 227.0757 0003420 268.4075  91.6692 14.98325860 62283
STARLINK-34388          
1 64294U 25123D   26198.06041230  .00001477  00000+0  13156-3 0  9997
2 64294  69.9991 228.3991 0004124 261.9642  98.1049 14.98334236 62210
STARLINK-34424          
1 64295U 25123E   26198.80295649  .00000569  00000+0  55491-4 0  9995
2 64295  69.9992 226.5704 0004161 272.8143  87.2540 14.98339041 62328
STARLINK-34443          
1 64296U 25123F   26198.50253574 -.00004100  00000+0 -33617-3 0  9996
2 64296  69.9988 227.1311 0003725 269.9948  90.0784 14.98308502 62285
STARLINK-34369          
1 64297U 25123G   26198.78227123  .00002098  00000+0  18356-3 0  9993
2 64297  69.9991 226.4996 0004208 268.6955  91.3722 14.98332192 61100
STARLINK-34391          
1 64298U 25123H   26198.07274429  .00001529  00000+0  13589-3 0  9998
2 64298  69.9994 228.0434 0003716 265.9198  94.1536 14.98333962 61000
STARLINK-34378          
1 64299U 25123J   26198.50269714  .00002361  00000+0  20563-3 0  9993
2 64299  69.9991 227.1360 0003124 269.4727  90.6074 14.98320503 61067
STARLINK-34376          
1 64300U 25123K   26198.06024776  .00001309  00000+0  11743-3 0  9995
2 64300  69.9993 228.4032 0004138 264.8595  95.2092 14.98333916 60994
STARLINK-34372          
1 64301U 25123L   26198.11031198  .00000316  00000+0  34270-4 0  9996
2 64301  69.9996 228.1724 0003748 263.3114  96.7618 14.98336186 61005
STARLINK-34379          
1 64302U 25123M   26198.94804962  .00018168  00000+0  38942-3 0  9998
2 64302  70.0010 172.9514 0002591 259.0104 101.0787 15.44769005 62454
STARLINK-34356          
1 64303U 25123N   26198.81128010  .00001340  00000+0  12004-3 0  9993
2 64303  69.9988 226.2039 0004154 266.2222  93.8462 14.98331706 61110
STARLINK-34360          
1 64304U 25123P   26198.12299897  .00000974  00000+0  89447-4 0  9998
2 64304  69.9993 228.2134 0003965 268.2804  91.7901 14.98333782 61001
STARLINK-34383          
1 64305U 25123Q   26198.07293643  .00001680  00000+0  14854-3 0  9990
2 64305  69.9994 228.4412 0003866 265.0305  95.0412 14.98333940 60992
STARLINK-34355          
1 64306U 25123R   26198.06876446  .00001651  00000+0  14613-3 0  9999
2 64306  69.9993 228.4276 0004385 263.6834  96.3826 14.98340668 60996
STARLINK-34380          
1 64307U 25123S   26198.79896208  .00003730  00000+0  32020-3 0  9990
2 64307  69.9989 226.5612 0003725 263.4769  96.5966 14.98337390 61106
STARLINK-34374          
1 64308U 25123T   26198.51938595  .00001013  00000+0  92663-4 0  9999
2 64308  69.9986 227.1871 0003984 272.9901  87.0803 14.98335585 61062
STARLINK-34370          
1 64309U 25123U   26198.11047770  .00000683  00000+0  65064-4 0  9999
2 64309  69.9993 228.1660 0004562 262.9231  97.1409 14.98340854 61009
STARLINK-34357          
1 64310U 25123V   26198.53175184  .00001984  00000+0  17407-3 0  9990
2 64310  69.9988 227.2387 0004362 265.0034  95.0627 14.98324143 61062
STARLINK-34368          
1 64311U 25123W   26198.12285054  .00001122  00000+0  10185-3 0  9994
2 64311  69.9990 228.2093 0003750 267.1235  92.9495 14.98328763 61002
STARLINK-34384          
1 64312U 25123X   26198.78208348  .00001644  00000+0  14550-3 0  9997
2 64312  69.9991 226.5025 0004367 264.9682  95.0978 14.98335769 61101
STARLINK-34358          
1 64313U 25123Y   26198.37318178  .00003501  00000+0  30103-3 0  9992
2 64313  69.9993 227.4831 0003743 270.1162  89.9568 14.98330423 61040
